start=new Date('2022-07-16T00:00:00.000Z').valueOf();
sats=[{"RCS_SIZE":"LARGE","TLE_LINE2":"2 51853  53.2172 242.1651 0002378  34.1348  16.4131 15.08825135  1306","CLASSIFICATION_TYPE":"U","REF_FRAME":"TEME","MEAN_MOTION":"15.08825135","EPHEMERIS_TYPE":"0","TLE_LINE1":"1 51853U 22022B   22196.91667824  .00018139  00000-0  11553-2 0  9992","MEAN_ANOMALY":"16.4131","BSTAR":"0.00115530000000","NORAD_CAT_ID":"51853","GP_ID":"208204282","OBJECT_NAME":"STARLINK-3539","RA_OF_ASC_NODE":"242.1651","MEAN_ELEMENT_THEORY":"SGP4","COUNTRY_CODE":"US","APOAPSIS":"541.436","ECCENTRICITY":"0.00023780","CENTER_NAME":"EARTH","PERIAPSIS":"538.146","OBJECT_TYPE":"PAYLOAD","DECAY_DATE":null,"INCLINATION":"53.2172","FILE":"3514839","EPOCH":"2022-07-15T22:00:00.999936","SEMIMAJOR_AXIS":"6917.926","OBJECT_ID":"2022-022B","MEAN_MOTION_DOT":"0.00018139","TIME_SYSTEM":"UTC","MEAN_MOTION_DDOT":"0.0000000000000","LAUNCH_DATE":"2022-03-03","REV_AT_EPOCH":"130","PERIOD":"95.438","SITE":"AFETR","ARG_OF_PERICENTER":"34.1348","ELEMENT_SET_NO":"999"},{"PERIOD":"95.438","SITE":"AFETR","ELEMENT_SET_NO":"999","ARG_OF_PERICENTER":"45.3432","OBJECT_ID":"2022-022C","MEAN_MOTION_DOT":"0.00021465","TIME_SYSTEM":"UTC","MEAN_MOTION_DDOT":"0.0000000000000","LAUNCH_DATE":"2022-03-03","REV_AT_EPOCH":"130","EPOCH":"2022-07-15T22:00:00.999936","SEMIMAJOR_AXIS":"6917.903","OBJECT_TYPE":"PAYLOAD","PERIAPSIS":"538.435","DECAY_DATE":null,"INCLINATION":"53.2141","FILE":"3514839","OBJECT_NAME":"STARLINK-3541","GP_ID":"208204533","RA_OF_ASC_NODE":"242.1680","COUNTRY_CODE":"US","MEAN_ELEMENT_THEORY":"SGP4","APOAPSIS":"541.101","ECCENTRICITY":"0.00019270","CENTER_NAME":"EARTH","BSTAR":"0.00136290000000","NORAD_CAT_ID":"51854","CLASSIFICATION_TYPE":"U","REF_FRAME":"TEME","MEAN_MOTION":"15.08832565","TLE_LINE1":"1 51854U 22022C   22196.91667824  .00021465  00000-0  13629-2 0  9995","EPHEMERIS_TYPE":"0","MEAN_ANOMALY":"45.2352","RCS_SIZE":"LARGE","TLE_LINE2":"2 51854  53.2141 242.1680 0001927  45.3432  45.2352 15.08832565  1302"},{"FILE":"3514839","INCLINATION":"53.2135","DECAY_DATE":null,"OBJECT_TYPE":"PAYLOAD","PERIAPSIS":"538.705","SEMIMAJOR_AXIS":"6917.941","EPOCH":"2022-07-15T22:00:00.999936","REV_AT_EPOCH":"130","LAUNCH_DATE":"2022-03-03","MEAN_MOTION_DDOT":"0.0000000000000","TIME_SYSTEM":"UTC","MEAN_MOTION_DOT":"0.00021432","OBJECT_ID":"2022-022D","ELEMENT_SET_NO":"999","ARG_OF_PERICENTER":"45.1455","SITE":"AFETR","PERIOD":"95.439","TLE_LINE2":"2 51855  53.2135 242.1626 0001591  45.1455  85.4398 15.08820319  1306","RCS_SIZE":"LARGE","MEAN_ANOMALY":"85.4398","TLE_LINE1":"1 51855U 22022D   22196.91667824  .00021432  00000-0  13613-2 0  9993","EPHEMERIS_TYPE":"0","MEAN_MOTION":"15.08820319","REF_FRAME":"TEME","CLASSIFICATION_TYPE":"U","NORAD_CAT_ID":"51855","BSTAR":"0.00136130000000","CENTER_NAME":"EARTH","ECCENTRICITY":"0.00015910","APOAPSIS":"540.906","MEAN_ELEMENT_THEORY":"SGP4","COUNTRY_CODE":"US","RA_OF_ASC_NODE":"242.1626","OBJECT_NAME":"STARLINK-3545","GP_ID":"208204784"},{"MEAN_ANOMALY":"73.7972","TLE_LINE1":"1 51856U 22022E   22196.91667824  .00021709  00000-0  13784-2 0  9990","EPHEMERIS_TYPE":"0","REF_FRAME":"TEME","MEAN_MOTION":"15.08825457","CLASSIFICATION_TYPE":"U","TLE_LINE2":"2 51856  53.2148 242.1724 0001925  36.7161  73.7972 15.08825457  1307","RCS_SIZE":"LARGE","ECCENTRICITY":"0.00019250","CENTER_NAME":"EARTH","MEAN_ELEMENT_THEORY":"SGP4","COUNTRY_CODE":"US","APOAPSIS":"541.122","RA_OF_ASC_NODE":"242.1724","GP_ID":"208203532","OBJECT_NAME":"STARLINK-3568","NORAD_CAT_ID":"51856","BSTAR":"0.00137840000000","EPOCH":"2022-07-15T22:00:00.999936","SEMIMAJOR_AXIS":"6917.925","INCLINATION":"53.2148","FILE":"3514839","DECAY_DATE":null,"PERIAPSIS":"538.458","OBJECT_TYPE":"PAYLOAD","SITE":"AFETR","ARG_OF_PERICENTER":"36.7161","ELEMENT_SET_NO":"999","PERIOD":"95.438","LAUNCH_DATE":"2022-03-03","REV_AT_EPOCH":"130","TIME_SYSTEM":"UTC","MEAN_MOTION_DDOT":"0.0000000000000","OBJECT_ID":"2022-022E","MEAN_MOTION_DOT":"0.00021709"},{"EPOCH":"2022-07-15T22:00:00.999936","SEMIMAJOR_AXIS":"6917.933","FILE":"3514839","INCLINATION":"53.2136","OBJECT_TYPE":"PAYLOAD","PERIAPSIS":"538.748","DECAY_DATE":null,"PERIOD":"95.439","SITE":"AFETR","ELEMENT_SET_NO":"999","ARG_OF_PERICENTER":"62.5318","LAUNCH_DATE":"2022-03-03","REV_AT_EPOCH":"130","OBJECT_ID":"2022-022F","MEAN_MOTION_DOT":"0.00021200","TIME_SYSTEM":"UTC","MEAN_MOTION_DDOT":"0.0000000000000","EPHEMERIS_TYPE":"0","TLE_LINE1":"1 51857U 22022F   22196.91667824  .00021200  00000-0  13467-2 0  9995","MEAN_ANOMALY":"108.0225","CLASSIFICATION_TYPE":"U","REF_FRAME":"TEME","MEAN_MOTION":"15.08822811","RCS_SIZE":"LARGE","TLE_LINE2":"2 51857  53.2136 242.1622 0001517  62.5318 108.0225 15.08822811  1304","COUNTRY_CODE":"US","MEAN_ELEMENT_THEORY":"SGP4","APOAPSIS":"540.847","CENTER_NAME":"EARTH","ECCENTRICITY":"0.00015170","OBJECT_NAME":"STARLINK-3571","GP_ID":"208203782","RA_OF_ASC_NODE":"242.1622","BSTAR":"0.00134670000000","NORAD_CAT_ID":"51857"},{"TLE_LINE2":"2 51858  53.2140 242.1646 0001621  48.4873 102.0987 15.08821101  1301","RCS_SIZE":"LARGE","MEAN_ANOMALY":"102.0987","TLE_LINE1":"1 51858U 22022G   22196.91667824  .00020923  00000-0  13295-2 0  9996","EPHEMERIS_TYPE":"0","MEAN_MOTION":"15.08821101","REF_FRAME":"TEME","CLASSIFICATION_TYPE":"U","NORAD_CAT_ID":"51858","BSTAR":"0.00132950000000","CENTER_NAME":"EARTH","ECCENTRICITY":"0.00016210","APOAPSIS":"540.925","MEAN_ELEMENT_THEORY":"SGP4","COUNTRY_CODE":"US","RA_OF_ASC_NODE":"242.1646","GP_ID":"208205034","OBJECT_NAME":"STARLINK-3563","FILE":"3514839","INCLINATION":"53.2140","DECAY_DATE":null,"OBJECT_TYPE":"PAYLOAD","PERIAPSIS":"538.682","SEMIMAJOR_AXIS":"6917.938","EPOCH":"2022-07-15T22:00:00.999936","REV_AT_EPOCH":"130","LAUNCH_DATE":"2022-03-03","MEAN_MOTION_DDOT":"0.0000000000000","TIME_SYSTEM":"UTC","MEAN_MOTION_DOT":"0.00020923","OBJECT_ID":"2022-022G","ELEMENT_SET_NO":"999","ARG_OF_PERICENTER":"48.4873","SITE":"AFETR","PERIOD":"95.439"},{"DECAY_DATE":null,"PERIAPSIS":"538.595","OBJECT_TYPE":"PAYLOAD","INCLINATION":"53.2137","FILE":"3514839","EPOCH":"2022-07-15T22:00:00.999936","SEMIMAJOR_AXIS":"6917.930","TIME_SYSTEM":"UTC","MEAN_MOTION_DDOT":"0.0000000000000","OBJECT_ID":"2022-022H","MEAN_MOTION_DOT":"0.00034480","LAUNCH_DATE":"2022-03-03","REV_AT_EPOCH":"130","SITE":"AFETR","ARG_OF_PERICENTER":"54.4146","ELEMENT_SET_NO":"999","PERIOD":"95.439","TLE_LINE2":"2 51859  53.2137 232.1619 0001735  54.4146  11.0859 15.08823811  1300","RCS_SIZE":"LARGE","REF_FRAME":"TEME","MEAN_MOTION":"15.08823811","CLASSIFICATION_TYPE":"U","MEAN_ANOMALY":"11.0859","EPHEMERIS_TYPE":"0","TLE_LINE1":"1 51859U 22022H   22196.91667824  .00034480  00000-0  21749-2 0  9993","NORAD_CAT_ID":"51859","BSTAR":"0.00217490000000","RA_OF_ASC_NODE":"232.1619","OBJECT_NAME":"STARLINK-3560","GP_ID":"208205285","ECCENTRICITY":"0.00017350","CENTER_NAME":"EARTH","MEAN_ELEMENT_THEORY":"SGP4","COUNTRY_CODE":"US","APOAPSIS":"540.995"},{"SEMIMAJOR_AXIS":"6917.962","EPOCH":"2022-07-15T22:00:00.999936","FILE":"3514839","INCLINATION":"53.2150","DECAY_DATE":null,"OBJECT_TYPE":"PAYLOAD","PERIAPSIS":"538.768","ELEMENT_SET_NO":"999","ARG_OF_PERICENTER":"65.2737","SITE":"AFETR","PERIOD":"95.439","REV_AT_EPOCH":"130","LAUNCH_DATE":"2022-03-03","MEAN_MOTION_DDOT":"0.0000000000000","TIME_SYSTEM":"UTC","MEAN_MOTION_DOT":"0.00027120","OBJECT_ID":"2022-022J","MEAN_ANOMALY":"320.3345","TLE_LINE1":"1 51860U 22022J   22196.91667824  .00027120  00000-0  17168-2 0  9998","EPHEMERIS_TYPE":"0","MEAN_MOTION":"15.08813222","REF_FRAME":"TEME","CLASSIFICATION_TYPE":"U","TLE_LINE2":"2 51860  53.2150 232.1564 0001531  65.2737 320.3345 15.08813222  1307","RCS_SIZE":"LARGE","ECCENTRICITY":"0.00015310","CENTER_NAME":"EARTH","APOAPSIS":"540.886","COUNTRY_CODE":"US","MEAN_ELEMENT_THEORY":"SGP4","RA_OF_ASC_NODE":"232.1564","GP_ID":"208204033","OBJECT_NAME":"STARLINK-3559","NORAD_CAT_ID":"51860","BSTAR":"0.00171680000000"},{"TLE_LINE1":"1 51861U 22022K   22196.91667824  .00033128  00000-0  20919-2 0  9992","EPHEMERIS_TYPE":"0","MEAN_ANOMALY":"64.7063","CLASSIFICATION_TYPE":"U","REF_FRAME":"TEME","MEAN_MOTION":"15.08803075","RCS_SIZE":"LARGE","TLE_LINE2":"2 51861  53.2135 232.1649 0001783  40.7914  64.7063 15.08803075  1300","COUNTRY_CODE":"US","MEAN_ELEMENT_THEORY":"SGP4","APOAPSIS":"541.092","CENTER_NAME":"EARTH","ECCENTRICITY":"0.00017830","OBJECT_NAME":"STARLINK-3562","GP_ID":"208204283","RA_OF_ASC_NODE":"232.1649","BSTAR":"0.00209190000000","NORAD_CAT_ID":"51861","EPOCH":"2022-07-15T22:00:00.999936","SEMIMAJOR_AXIS":"6917.993","FILE":"3514839","INCLINATION":"53.2135","OBJECT_TYPE":"PAYLOAD","PERIAPSIS":"538.625","DECAY_DATE":null,"PERIOD":"95.440","SITE":"AFETR","ARG_OF_PERICENTER":"40.7914","ELEMENT_SET_NO":"999","LAUNCH_DATE":"2022-03-03","REV_AT_EPOCH":"130","OBJECT_ID":"2022-022K","MEAN_MOTION_DOT":"0.00033128","TIME_SYSTEM":"UTC","MEAN_MOTION_DDOT":"0.0000000000000"},{"TIME_SYSTEM":"UTC","MEAN_MOTION_DDOT":"0.0000000000000","OBJECT_ID":"2022-022L","MEAN_MOTION_DOT":"0.00035091","LAUNCH_DATE":"2022-03-03","REV_AT_EPOCH":"130","SITE":"AFETR","ARG_OF_PERICENTER":"50.1132","ELEMENT_SET_NO":"999","PERIOD":"95.439","DECAY_DATE":null,"PERIAPSIS":"538.569","OBJECT_TYPE":"PAYLOAD","INCLINATION":"53.2163","FILE":"3514839","EPOCH":"2022-07-15T22:00:00.999936","SEMIMAJOR_AXIS":"6917.945","NORAD_CAT_ID":"51862","BSTAR":"0.00221320000000","RA_OF_ASC_NODE":"232.1549","OBJECT_NAME":"STARLINK-3508","GP_ID":"208204534","CENTER_NAME":"EARTH","ECCENTRICITY":"0.00017930","MEAN_ELEMENT_THEORY":"SGP4","COUNTRY_CODE":"US","APOAPSIS":"541.050","TLE_LINE2":"2 51862  53.2163 232.1549 0001793  50.1132 355.4049 15.08818999  1304","RCS_SIZE":"LARGE","REF_FRAME":"TEME","MEAN_MOTION":"15.08818999","CLASSIFICATION_TYPE":"U","MEAN_ANOMALY":"355.4049","TLE_LINE1":"1 51862U 22022L   22196.91667824  .00035091  00000-0  22132-2 0  9993","EPHEMERIS_TYPE":"0"}];
